QIANFAN-60              
1 62790U 25016F   25330.11558757  .00000079  00000+0  10412-3 0  9996
2 62790  88.9747 104.7940 0016419  37.1036 323.1247 13.50978120 44988
QIANFAN-61              
1 62791U 25016G   25330.14833166  .00000154  00000+0  21995-3 0  9992
2 62791  88.9814 104.9422 0015351  36.7498 323.4703 13.50975256 45003
QIANFAN-62              
1 62792U 25016H   25330.15246950  .00000154  00000+0  21982-3 0  9999
2 62792  88.9760 104.8192 0016735  36.6183 323.6109 13.50985204 44997
QIANFAN-63              
1 62793U 25016J   25330.17720034  .00000162  00000+0  23272-3 0  9995
2 62793  88.9767 104.7670 0016917  41.6189 318.6246 13.50978344 45038
QIANFAN-64              
1 62794U 25016K   25330.14421198  .00000143  00000+0  20213-3 0  9993
2 62794  88.9754 104.7468 0014695  35.7223 324.4908 13.50980128 45026
QIANFAN-65              
1 62795U 25016L   25330.14015367  .00000140  00000+0  19773-3 0  9997
2 62795  88.9750 104.7738 0014573  37.4745 322.7419 13.50979074 45000
QIANFAN-66              
1 62796U 25016M   25330.16892887  .00000149  00000+0  21135-3 0  9994
2 62796  88.9769 104.7377 0015556  32.7271 327.4841 13.50983196 45050
QIANFAN-67              
1 62797U 25016N   25330.17315200  .00000142  00000+0  20131-3 0  9993
2 62797  88.9760 104.7645 0015709  39.3112 320.9176 13.50976009 45028
QIANFAN-68              
1 62798U 25016P   25330.16487574  .00000144  00000+0  20476-3 0  9991
2 62798  88.9764 104.8100 0015713  37.6110 322.6136 13.50978380 45001
QIANFAN-69              
1 62799U 25016Q   25330.18140661  .00000151  00000+0  21540-3 0  9998
2 62799  88.9742 104.6812 0016498  38.3593 321.8728 13.50981350 45043
QIANFAN-70              
1 62800U 25016R   25330.12365220  .00000159  00000+0  22699-3 0  9999
2 62800  88.9763 104.8221 0015853  29.3864 330.8175 13.50971997 44995
QIANFAN-71              
1 62801U 25016S   25330.11957993  .00000143  00000+0  20237-3 0  9992
2 62801  88.9757 104.8031 0016515  41.9248 318.3164 13.50979261 44991
QIANFAN-72              
1 62802U 25016T   25330.13605661  .00000138  00000+0  19485-3 0  9994
2 62802  88.9747 104.8164 0019936  47.8921 312.3921 13.50979184 44989
QIANFAN-73              
1 63159U 25046A   25330.16300206  .00000033  00000+0  32418-4 0  9999
2 63159  88.9751 321.7402 0015252 164.8700 195.2910 13.50974096 45172
QIANFAN-74              
1 63160U 25046B   25330.14644139  .00000023  00000+0  17160-4 0  9991
2 63160  88.9752 321.6304 0001995  84.4046 275.7333 13.50976208 45231
QIANFAN-75              
1 63161U 25046C   25330.13374891  .00000110  00000+0  15089-3 0  9990
2 63161  88.9754 321.8652 0016251 168.4503 191.7024 13.50989897 45102
QIANFAN-76              
1 63162U 25046D   25330.13017736 -.00000100  00000+0 -17442-3 0  9999
2 63162  88.9747 321.8465 0013785 168.1042 192.0438 13.50964648 45112
QIANFAN-77              
1 63163U 25046E   25330.12913132  .00000166  00000+0  11084-3 0  9990
2 63163  88.9754 319.9895 0016366 127.3858 232.8811 13.96077198 46132
QIANFAN-78              
1 63164U 25046F   25330.09714061  .00000008  00000+0 -61162-5 0  9997
2 63164  88.9747 321.7139 0015097 171.1845 188.9574 13.50974666 45187
QIANFAN-79              
1 63165U 25046G   25330.12582140  .00000037  00000+0  37961-4 0  9993
2 63165  88.9756 321.8178 0014847 168.9882 191.1597 13.50975717 45133
QIANFAN-80              
1 63166U 25046H   25330.21637958  .00000075  00000+0  97202-4 0  9998
2 63166  88.9753 321.5156 0013701 172.5820 187.5537 13.50980316 45308
QIANFAN-81              
1 63167U 25046J   25330.19508117  .00000119  00000+0  16582-3 0  9990
2 63167  88.9753 321.5859 0015081 161.6536 198.5162 13.50997480 45255
QIANFAN-82              
1 63168U 25046K   25330.15474854  .00000083  00000+0  10904-3 0  9999
2 63168  88.9753 321.6339 0012979 168.5442 191.6007 13.50977022 45235
QIANFAN-83              
1 63169U 25046L   25330.09530823  .00000051  00000+0  49829-4 0  9996
2 63169  88.9754 321.4491 0014704 155.7792 204.4060 13.61970027 45331
QIANFAN-84              
1 63170U 25046M   25330.10862884 -.00000024  00000+0 -56551-4 0  9997
2 63170  88.9747 321.7716 0016026 166.8334 193.3238 13.50985521 45158
QIANFAN-85              
1 63171U 25046N   25330.17932117  .00000098  00000+0  13250-3 0  9999
2 63171  88.9753 321.6359 0013359 167.6232 192.5250 13.50982096 45238
QIANFAN-86              
1 63172U 25046P   25330.18765056  .00000091  00000+0  12208-3 0  9992
2 63172  88.9755 321.4967 0011125 170.2501 189.8868 13.50978803 45316
QIANFAN-87              
1 63173U 25046Q   25330.15895389  .00000047  00000+0  53647-4 0  9997
2 63173  88.9751 321.6121 0011927 166.0687 194.0795 13.50971176 45240
QIANFAN-88              
1 63174U 25046R   25330.17535507  .00000084  00000+0  11202-3 0  9994
2 63174  88.9753 321.5645 0012065 174.1459 185.9835 13.50976413 45270
QIANFAN-89              
1 63175U 25046S   25330.21217102  .00000080  00000+0  10536-3 0  9993
2 63175  88.9753 321.7498 0016700 167.1022 193.0559 13.50979250 45171
QIANFAN-90              
1 63176U 25046T   25330.16686753  .00000008  00000+0 -69587-5 0  9993
2 63176  88.9754 321.7269 0013703 163.9826 196.1761 13.50974564 45188
QIANFAN-91              
1 66033U 25233A   25330.01192054  .00000549  00000+0  31716-3 0  9996
2 66033  88.9962  63.9845 0018851  87.8929 272.4412 14.07531654  5646
QIANFAN-92              
1 66034U 25233B   25330.01496087  .00000418  00000+0  24170-3 0  9991
2 66034  88.9967  63.9834 0017275  90.0768 270.2394 14.07043775  5643
QIANFAN-93              
1 66035U 25233C   25330.00633742  .00000174  00000+0  96933-4 0  9998
2 66035  88.9961  63.9830 0017727  89.4678 270.8536 14.06394384  5646
QIANFAN-94              
1 66036U 25233D   25330.01056882  .00000364  00000+0  21066-3 0  9999
2 66036  88.9963  63.9843 0016982  89.8203 270.4926 14.06744181  5646
QIANFAN-95              
1 66037U 25233E   25330.19407118  .00000774  00000+0  31680-3 0  9999
2 66037  88.9964  63.9372 0016372  91.5274 268.7795 14.26197253  5688
QIANFAN-96              
1 66038U 25233F   25330.16369181  .00000381  00000+0  22901-3 0  9994
2 66038  88.9964  63.9696 0018270  91.0008 269.3267 14.04698005  5663
QIANFAN-97              
1 66039U 25233G   25330.08378431  .00000363  00000+0  21446-3 0  9997
2 66039  88.9965  63.9764 0017804  91.5729 268.7493 14.05549175  5655
QIANFAN-98              
1 66040U 25233H   25330.06897819  .00000605  00000+0  28637-3 0  9991
2 66040  88.9964  63.9555 0017035  92.7146 267.5993 14.18298789  5665
QIANFAN-99              
1 66041U 25233J   25330.08195478  .00000374  00000+0  22028-3 0  9997
2 66041  88.9965  63.9758 0017548  88.3266 271.9926 14.05872431  5657
QIANFAN-100             
1 66042U 25233K   25330.06898088  .00000591  00000+0  28070-3 0  9997
2 66042  88.9963  63.9556 0016570  93.2840 267.0245 14.18099892  5666
QIANFAN-101             
1 66043U 25233L   25330.18378284  .00000401  00000+0  15982-3 0  9990
2 66043  88.9966  63.9357 0016977  90.3053 270.0086 14.26661163  5688
QIANFAN-102             
1 66044U 25233M   25330.13569334  .00000443  00000+0  25001-3 0  9993
2 66044  88.9770  63.9502 0024037 106.5450 253.8376 14.08386684  5662
QIANFAN-103             
1 66045U 25233N   25330.15771983  .00000276  00000+0  16495-3 0  9992
2 66045  88.9966  63.9700 0017606  89.5228 270.7971 14.04311256  5665
QIANFAN-104             
1 66046U 25233P   25330.06461235  .00000519  00000+0  29323-3 0  9993
2 66046  88.9974  63.9766 0017782  91.4179 268.9042 14.08653214  5653
QIANFAN-105             
1 66047U 25233Q   25330.06684708  .00000224  00000+0  12113-3 0  9998
2 66047  88.9963  63.9741 0017549  89.4698 270.8497 14.08860204  5654
QIANFAN-106             
1 66048U 25233R   25330.00767299  .00000168  00000+0  94362-4 0  9994
2 66048  88.9944  63.9876 0018402  86.6542 273.6745 14.05812954  5641
QIANFAN-107             
1 66049U 25233S   25330.06564837  .00000390  00000+0  22181-3 0  9990
2 66049  88.9969  63.9748 0018111  89.8835 270.4423 14.07819794  5654
QIANFAN-108             
1 66050U 25233T   25330.07181150  .00000288  00000+0  16468-3 0  9993
2 66050  88.9964  63.9742 0017416  90.8777 269.4401 14.06800011  5654
